sat20129
1 20129U 89080E   20046.91166900  .00000294  00000-0  11378-3 0  9991
2 20129  82.5037 219.1412 1006424 202.0950 319.3008 12.84178697404810
